SL-4 R/B                
1 39679U 14021B   26032.05997559  .00010068  00000+0  23374-3 0  9990
2 39679  51.6067 155.8080 0099019 329.4654  30.0587 15.38028546650634
ALOS-2                  
1 39766U 14029A   26032.26478948 -.00000234  00000+0 -24463-4 0  9991
2 39766  97.9227 131.3857 0001425  99.6226 260.5147 14.79466400631481
YAOGAN-29               
1 41038U 15069A   26032.29151772  .00000854  00000+0  11187-3 0  9991
2 41038  98.0182  60.6180 0002845  97.8993 262.2543 14.82952359550485
ASTRO-H (HITOMI)        
1 41337U 16012A   26031.87763397  .00002911  00000+0  17025-3 0  9990
2 41337  30.9981 234.0565 0009931 322.6255  37.3692 15.09729014546667
HXMT (HUIYAN)           
1 42758U 17034A   26031.97666326  .00004333  00000+0  22464-3 0  9991
2 42758  43.0121 220.7064 0031946   0.1506 359.9347 15.16969122476969
CZ-2C R/B               
1 43521U 18054D   26031.74155439  .00239662  21883-4  71720-3 0  9997
2 43521  35.1284 198.2834 0013494 304.0164  55.9293 15.91118194422971
SAOCOM 1A               
1 43641U 18076A   26032.30477282  .00000448  00000+0  62835-4 0  9999
2 43641  97.8861 220.9939 0001410  84.7395 275.3979 14.82148202395972
H-2A R/B                
1 43682U 18084L   26031.96888630  .00016659  00000+0  41905-3 0  9992
2 43682  98.8758 241.5533 0026168 149.2844 210.9935 15.39700114400125
SAOCOM 1B               
1 46265U 20059A   26032.26853450  .00000618  00000+0  84217-4 0  9995
2 46265  97.8857 220.0566 0001339  86.5219 273.6147 14.82153797293356
CSS (TIANHE)            
1 48274U 21035A   26031.38642198  .00028253  00000+0  32371-3 0  9997
2 48274  41.4674  74.8264 0008909  46.9753 313.1831 15.61427822271787
COSMOS 2550             
1 48865U 21056A   26026.13240542 -.00000181  00000+0  32270-6 0  9992
2 48865  67.1441 169.6578 0008309 269.8947  90.1255 15.33840202256938
CZ-2C R/B               
1 52794U 22058K   26032.15624534  .00023000  00000+0  37186-3 0  9999
2 52794  50.1891 145.8488 0042458  46.1388 314.3077 15.51676489204456
