CCSDS_OMM_VERS = 2.0
CREATION_DATE  = 
ORIGINATOR     = 

OBJECT_NAME    = SL-4 R/B
OBJECT_ID      = 2014-021B
CENTER_NAME    = EARTH
REF_FRAME      = TEME
TIME_SYSTEM    = UTC
MEAN_ELEMENT_THEORY = SGP/SGP4

EPOCH          = 2026-02-01T01:26:21.890976
MEAN_MOTION    = 15.38028546
ECCENTRICITY   = .00990193
INCLINATION    = 51.6067
RA_OF_ASC_NODE = 155.8080
ARG_OF_PERICENTER = 329.4654
MEAN_ANOMALY   = 30.0587

EPHEMERIS_TYPE = 0
CLASSIFICATION_TYPE = U
NORAD_CAT_ID   = 39679
ELEMENT_SET_NO = 999
REV_AT_EPOCH   = 65063
BSTAR          = .23373697E-3
MEAN_MOTION_DOT = .10068E-3
MEAN_MOTION_DDOT = 0

CCSDS_OMM_VERS = 2.0
CREATION_DATE  = 
ORIGINATOR     = 

OBJECT_NAME    = ALOS-2
OBJECT_ID      = 2014-029A
CENTER_NAME    = EARTH
REF_FRAME      = TEME
TIME_SYSTEM    = UTC
MEAN_ELEMENT_THEORY = SGP/SGP4

EPOCH          = 2026-02-01T06:21:17.811072
MEAN_MOTION    = 14.79466400
ECCENTRICITY   = .00014254
INCLINATION    = 97.9227
RA_OF_ASC_NODE = 131.3857
ARG_OF_PERICENTER = 99.6226
MEAN_ANOMALY   = 260.5147

EPHEMERIS_TYPE = 0
CLASSIFICATION_TYPE = U
NORAD_CAT_ID   = 39766
ELEMENT_SET_NO = 999
REV_AT_EPOCH   = 63148
BSTAR          = -.24462962E-4
MEAN_MOTION_DOT = -.234E-5
MEAN_MOTION_DDOT = 0

CCSDS_OMM_VERS = 2.0
CREATION_DATE  = 
ORIGINATOR     = 

OBJECT_NAME    = YAOGAN-29
OBJECT_ID      = 2015-069A
CENTER_NAME    = EARTH
REF_FRAME      = TEME
TIME_SYSTEM    = UTC
MEAN_ELEMENT_THEORY = SGP/SGP4

EPOCH          = 2026-02-01T06:59:47.131008
MEAN_MOTION    = 14.82952359
ECCENTRICITY   = .0002845
INCLINATION    = 98.0182
RA_OF_ASC_NODE = 60.6180
ARG_OF_PERICENTER = 97.8993
MEAN_ANOMALY   = 262.2543

EPHEMERIS_TYPE = 0
CLASSIFICATION_TYPE = U
NORAD_CAT_ID   = 41038
ELEMENT_SET_NO = 999
REV_AT_EPOCH   = 55048
BSTAR          = .11186665E-3
MEAN_MOTION_DOT = .854E-5
MEAN_MOTION_DDOT = 0

CCSDS_OMM_VERS = 2.0
CREATION_DATE  = 
ORIGINATOR     = 

OBJECT_NAME    = ASTRO-H (HITOMI)
OBJECT_ID      = 2016-012A
CENTER_NAME    = EARTH
REF_FRAME      = TEME
TIME_SYSTEM    = UTC
MEAN_ELEMENT_THEORY = SGP/SGP4

EPOCH          = 2026-01-31T21:03:47.575008
MEAN_MOTION    = 15.09729014
ECCENTRICITY   = .00099315
INCLINATION    = 30.9981
RA_OF_ASC_NODE = 234.0565
ARG_OF_PERICENTER = 322.6255
MEAN_ANOMALY   = 37.3692

EPHEMERIS_TYPE = 0
CLASSIFICATION_TYPE = U
NORAD_CAT_ID   = 41337
ELEMENT_SET_NO = 999
REV_AT_EPOCH   = 54666
BSTAR          = .17025206E-3
MEAN_MOTION_DOT = .2911E-4
MEAN_MOTION_DDOT = 0

CCSDS_OMM_VERS = 2.0
CREATION_DATE  = 
ORIGINATOR     = 

OBJECT_NAME    = HXMT (HUIYAN)
OBJECT_ID      = 2017-034A
CENTER_NAME    = EARTH
REF_FRAME      = TEME
TIME_SYSTEM    = UTC
MEAN_ELEMENT_THEORY = SGP/SGP4

EPOCH          = 2026-01-31T23:26:23.705664
MEAN_MOTION    = 15.16969122
ECCENTRICITY   = .00319461
INCLINATION    = 43.0121
RA_OF_ASC_NODE = 220.7064
ARG_OF_PERICENTER = 0.1506
MEAN_ANOMALY   = 359.9347

EPHEMERIS_TYPE = 0
CLASSIFICATION_TYPE = U
NORAD_CAT_ID   = 42758
ELEMENT_SET_NO = 999
REV_AT_EPOCH   = 47696
BSTAR          = .22464116E-3
MEAN_MOTION_DOT = .4333E-4
MEAN_MOTION_DDOT = 0

CCSDS_OMM_VERS = 2.0
CREATION_DATE  = 
ORIGINATOR     = 

OBJECT_NAME    = CZ-2C R/B
OBJECT_ID      = 2018-054D
CENTER_NAME    = EARTH
REF_FRAME      = TEME
TIME_SYSTEM    = UTC
MEAN_ELEMENT_THEORY = SGP/SGP4

EPOCH          = 2026-01-31T17:47:50.299296
MEAN_MOTION    = 15.91118194
ECCENTRICITY   = .00134942
INCLINATION    = 35.1284
RA_OF_ASC_NODE = 198.2834
ARG_OF_PERICENTER = 304.0164
MEAN_ANOMALY   = 55.9293

EPHEMERIS_TYPE = 0
CLASSIFICATION_TYPE = U
NORAD_CAT_ID   = 43521
ELEMENT_SET_NO = 999
REV_AT_EPOCH   = 42297
BSTAR          = .7172045E-3
MEAN_MOTION_DOT = .239662E-2
MEAN_MOTION_DDOT = .21883057E-4

CCSDS_OMM_VERS = 2.0
CREATION_DATE  = 
ORIGINATOR     = 

OBJECT_NAME    = SAOCOM 1A
OBJECT_ID      = 2018-076A
CENTER_NAME    = EARTH
REF_FRAME      = TEME
TIME_SYSTEM    = UTC
MEAN_ELEMENT_THEORY = SGP/SGP4

EPOCH          = 2026-02-01T07:18:52.371648
MEAN_MOTION    = 14.82148202
ECCENTRICITY   = .00014102
INCLINATION    = 97.8861
RA_OF_ASC_NODE = 220.9939
ARG_OF_PERICENTER = 84.7395
MEAN_ANOMALY   = 275.3979

EPHEMERIS_TYPE = 0
CLASSIFICATION_TYPE = U
NORAD_CAT_ID   = 43641
ELEMENT_SET_NO = 999
REV_AT_EPOCH   = 39597
BSTAR          = .62835299E-4
MEAN_MOTION_DOT = .448E-5
MEAN_MOTION_DDOT = 0

CCSDS_OMM_VERS = 2.0
CREATION_DATE  = 
ORIGINATOR     = 

OBJECT_NAME    = H-2A R/B
OBJECT_ID      = 2018-084L
CENTER_NAME    = EARTH
REF_FRAME      = TEME
TIME_SYSTEM    = UTC
MEAN_ELEMENT_THEORY = SGP/SGP4

EPOCH          = 2026-01-31T23:15:11.776320
MEAN_MOTION    = 15.39700114
ECCENTRICITY   = .00261685
INCLINATION    = 98.8758
RA_OF_ASC_NODE = 241.5533
ARG_OF_PERICENTER = 149.2844
MEAN_ANOMALY   = 210.9935

EPHEMERIS_TYPE = 0
CLASSIFICATION_TYPE = U
NORAD_CAT_ID   = 43682
ELEMENT_SET_NO = 999
REV_AT_EPOCH   = 40012
BSTAR          = .41905463E-3
MEAN_MOTION_DOT = .16659E-3
MEAN_MOTION_DDOT = 0

CCSDS_OMM_VERS = 2.0
CREATION_DATE  = 
ORIGINATOR     = 

OBJECT_NAME    = SAOCOM 1B
OBJECT_ID      = 2020-059A
CENTER_NAME    = EARTH
REF_FRAME      = TEME
TIME_SYSTEM    = UTC
MEAN_ELEMENT_THEORY = SGP/SGP4

EPOCH          = 2026-02-01T06:26:41.380800
MEAN_MOTION    = 14.82153797
ECCENTRICITY   = .00013392
INCLINATION    = 97.8857
RA_OF_ASC_NODE = 220.0566
ARG_OF_PERICENTER = 86.5219
MEAN_ANOMALY   = 273.6147

EPHEMERIS_TYPE = 0
CLASSIFICATION_TYPE = U
NORAD_CAT_ID   = 46265
ELEMENT_SET_NO = 999
REV_AT_EPOCH   = 29335
BSTAR          = .84217262E-4
MEAN_MOTION_DOT = .618E-5
MEAN_MOTION_DDOT = 0

CCSDS_OMM_VERS = 2.0
CREATION_DATE  = 
ORIGINATOR     = 

OBJECT_NAME    = CSS (TIANHE)
OBJECT_ID      = 2021-035A
CENTER_NAME    = EARTH
REF_FRAME      = TEME
TIME_SYSTEM    = UTC
MEAN_ELEMENT_THEORY = SGP/SGP4

EPOCH          = 2026-01-31T09:16:26.859072
MEAN_MOTION    = 15.61427822
ECCENTRICITY   = .00089098
INCLINATION    = 41.4674
RA_OF_ASC_NODE = 74.8264
ARG_OF_PERICENTER = 46.9753
MEAN_ANOMALY   = 313.1831

EPHEMERIS_TYPE = 0
CLASSIFICATION_TYPE = U
NORAD_CAT_ID   = 48274
ELEMENT_SET_NO = 999
REV_AT_EPOCH   = 27178
BSTAR          = .32370793E-3
MEAN_MOTION_DOT = .28253E-3
MEAN_MOTION_DDOT = 0

CCSDS_OMM_VERS = 2.0
CREATION_DATE  = 
ORIGINATOR     = 

OBJECT_NAME    = COSMOS 2550
OBJECT_ID      = 2021-056A
CENTER_NAME    = EARTH
REF_FRAME      = TEME
TIME_SYSTEM    = UTC
MEAN_ELEMENT_THEORY = SGP/SGP4

EPOCH          = 2026-01-26T03:10:39.828288
MEAN_MOTION    = 15.33840202
ECCENTRICITY   = .00083094
INCLINATION    = 67.1441
RA_OF_ASC_NODE = 169.6578
ARG_OF_PERICENTER = 269.8947
MEAN_ANOMALY   = 90.1255

EPHEMERIS_TYPE = 0
CLASSIFICATION_TYPE = U
NORAD_CAT_ID   = 48865
ELEMENT_SET_NO = 999
REV_AT_EPOCH   = 25693
BSTAR          = .322698E-6
MEAN_MOTION_DOT = -.181E-5
MEAN_MOTION_DDOT = 0

CCSDS_OMM_VERS = 2.0
CREATION_DATE  = 
ORIGINATOR     = 

OBJECT_NAME    = CZ-2C R/B
OBJECT_ID      = 2022-058K
CENTER_NAME    = EARTH
REF_FRAME      = TEME
TIME_SYSTEM    = UTC
MEAN_ELEMENT_THEORY = SGP/SGP4

EPOCH          = 2026-02-01T03:44:59.597376
MEAN_MOTION    = 15.51676489
ECCENTRICITY   = .00424582
INCLINATION    = 50.1891
RA_OF_ASC_NODE = 145.8488
ARG_OF_PERICENTER = 46.1388
MEAN_ANOMALY   = 314.3077

EPHEMERIS_TYPE = 0
CLASSIFICATION_TYPE = U
NORAD_CAT_ID   = 52794
ELEMENT_SET_NO = 999
REV_AT_EPOCH   = 20445
BSTAR          = .37186264E-3
MEAN_MOTION_DOT = .23E-3
MEAN_MOTION_DDOT = 0

